{
    "links": {
        "self": "http://www.neowsapp.com/rest/v1/neo/3634130?api_key=iIulBulltgU6a56xZRHN4H3l9WmuAYTsLGpBGhQ2"
    },
    "id": "3634130",
    "neo_reference_id": "3634130",
    "name": "(2013 GJ)",
    "designation": "2013 GJ",
    "nasa_jpl_url": "http://ssd.jpl.nasa.gov/sbdb.cgi?sstr=3634130",
    "absolute_magnitude_h": 23.1,
    "estimated_diameter": {
        "kilometers": {
            "estimated_diameter_min": 0.063760979,
            "estimated_diameter_max": 0.1425738833
        },
        "meters": {
            "estimated_diameter_min": 63.7609789875,
            "estimated_diameter_max": 142.5738833281
        },
        "miles": {
            "estimated_diameter_min": 0.0396192233,
            "estimated_diameter_max": 0.0885912765
        },
        "feet": {
            "estimated_diameter_min": 209.1895703015,
            "estimated_diameter_max": 467.7620993781
        }
    },
    "is_potentially_hazardous_asteroid": false,
    "close_approach_data": [
        {
            "close_approach_date": "2013-04-07",
            "close_approach_date_full": "2013-Apr-07 17:01",
            "epoch_date_close_approach": 1365354060000,
            "relative_velocity": {
                "kilometers_per_second": "14.5955440925",
                "kilometers_per_hour": "52543.9587330403",
                "miles_per_hour": "32648.7725805383"
            },
            "miss_distance": {
                "astronomical": "0.0492918782",
                "lunar": "19.1745406198",
                "kilometers": "7373959.987019434",
                "miles": "4581966.2673348292"
            },
            "orbiting_body": "Earth"
        },
        {
            "close_approach_date": "2016-08-15",
            "close_approach_date_full": "2016-Aug-15 04:46",
            "epoch_date_close_approach": 1471236360000,
            "relative_velocity": {
                "kilometers_per_second": "24.5590490637",
                "kilometers_per_hour": "88412.5766292138",
                "miles_per_hour": "54936.1368505245"
            },
            "miss_distance": {
                "astronomical": "0.4792691968",
                "lunar": "186.4357175552",
                "kilometers": "71697650.997890816",
                "miles": "44550854.4795166208"
            },
            "orbiting_body": "Earth"
        },
        {
            "close_approach_date": "2098-04-21",
            "close_approach_date_full": "2098-Apr-21 19:20",
            "epoch_date_close_approach": 4048946400000,
            "relative_velocity": {
                "kilometers_per_second": "11.569016357",
                "kilometers_per_hour": "41648.458885047",
                "miles_per_hour": "25878.7326888782"
            },
            "miss_distance": {
                "astronomical": "0.1051188402",
                "lunar": "40.8912288378",
                "kilometers": "15725554.590790374",
                "miles": "9771406.5165762012"
            },
            "orbiting_body": "Earth"
        }
    ],
    "orbital_data": {
        "orbit_id": "12",
        "orbit_determination_date": "2017-04-06 08:46:16",
        "first_observation_date": "2013-04-02",
        "last_observation_date": "2013-04-12",
        "data_arc_in_days": 10,
        "observations_used": 46,
        "orbit_uncertainty": "8",
        "minimum_orbit_intersection": ".0394422",
        "jupiter_tisserand_invariant": "3.446",
        "epoch_osculation": "2456388.5",
        "eccentricity": ".5756078453997108",
        "semi_major_axis": "2.149113795932972",
        "inclination": "12.84364895872426",
        "ascending_node_longitude": "12.24688239022557",
        "orbital_period": "1150.767385876611",
        "perihelion_distance": ".9120670343372003",
        "perihelion_argument": "233.8587084410079",
        "aphelion_distance": "3.386160557528743",
        "perihelion_time": "2456425.753743563638",
        "mean_anomaly": "348.3457353349535",
        "mean_motion": ".3128347261299604",
        "equinox": "J2000",
        "orbit_class": {
            "orbit_class_type": "APO",
            "orbit_class_description": "Near-Earth asteroid orbits which cross the Earth’s orbit similar to that of 1862 Apollo",
            "orbit_class_range": "a (semi-major axis) > 1.0 AU; q (perihelion) < 1.017 AU"
        }
    },
    "is_sentry_object": false
}